NORAD_CAT_ID,OBJECT_NAME,OBJECT_TYPE,EPOCH,MEAN_MOTION,ECCENTRICITY,INCLINATION,RA_OF_ASC_NODE,ARG_OF_PERICENTER,MEAN_ANOMALY,BSTAR,MEAN_MOTION_DOT,MEAN_MOTION_DDOT,TLE_LINE0,TLE_LINE1,TLE_LINE2,SEMIMAJOR_AXIS,PERIOD,APOGEE,PERIGEE,DECAYED
53830.0,STARLINK-4761,PAYLOAD,2023-09-24 11:12:00,15.08853793,0.0001128,53.2173,11.7383,99.2314,260.8806,0.00091723,0.00014345,0.0,0 STARLINK-4761,1 53830U 22114N   23267.46667199  .00014345  00000-0  91723-3 0  9999,2 53830  53.2173  11.7383 0001128  99.2314 260.8806 15.08853793 56847,6917.838,95.437,540.484,538.923,0.0
53830.0,STARLINK-4761,PAYLOAD,2023-09-24 17:33:32,15.0885777,0.0001263,53.217,10.549,75.6697,284.4436,0.0011267,0.00017698,0.0,0 STARLINK-4761,1 53830U 22114N   23267.73163134  .00017698  00000-0  11267-2 0  9997,2 53830  53.2170  10.5490 0001263  75.6697 284.4436 15.08857770 57427,6917.826,95.436,540.565,538.817,0.0
53830.0,STARLINK-4761,PAYLOAD,2023-09-25 12:38:10,15.08869901,0.0001209,53.2178,6.9817,94.9073,265.2057,0.0013546,0.00021354,0.0,0 STARLINK-4761,1 53830U 22114N   23268.52650959  .00021354  00000-0  13546-2 0  9997,2 53830  53.2178   6.9817 0001209  94.9073 265.2057 15.08869901 57547,6917.789,95.436,540.49,538.818,0.0
53830.0,STARLINK-4761,PAYLOAD,2023-09-25 18:59:42,15.08886722,0.0001177,53.2176,5.7909,91.2056,268.9071,0.0014906,0.00023545,0.0,0 STARLINK-4761,1 53830U 22114N   23268.79146283  .00023545  00000-0  14906-2 0  9991,2 53830  53.2176   5.7909 0001177  91.2056 268.9071 15.08886722 57040,6917.738,95.435,540.417,538.788,0.0
53830.0,STARLINK-4761,PAYLOAD,2023-09-26 10:53:34,15.0882254,0.0001039,53.2172,2.8218,80.9697,279.1413,0.00024051,3.54e-05,0.0,0 STARLINK-4761,1 53830U 22114N   23269.45387703  .00003540  00000-0  24051-3 0  9995,2 53830  53.2172   2.8218 0001039  80.9697 279.1413 15.08822540 57143,6917.934,95.439,540.518,539.08,0.0
53830.0,STARLINK-4761,PAYLOAD,2023-09-26 14:04:21,15.0884269,0.0001174,53.2174,2.2243,90.2303,269.8824,0.0025898,0.00041173,0.0,0 STARLINK-4761,1 53830U 22114N   23269.58635770  .00041173  00000-0  25898-2 0  9992,2 53830  53.2174   2.2243 0001174  90.2303 269.8824 15.08842690 57707,6917.872,95.437,540.549,538.925,0.0
53830.0,STARLINK-4761,PAYLOAD,2023-09-27 12:19:44,15.08863576,0.0001367,53.2186,358.0588,97.5395,262.5753,0.0014021,0.00022111,0.0,0 STARLINK-4761,1 53830U 22114N   23270.51371507  .00022111  00000-0  14021-2 0  9999,2 53830  53.2186 358.0588 0001367  97.5395 262.5753 15.08863576 57841,6917.808,95.436,540.619,538.728,0.0
53830.0,STARLINK-4761,PAYLOAD,2023-09-28 12:10:32,15.08843186,0.0001396,53.2184,353.5993,92.8278,267.2874,0.00019411,2.803e-05,0.0,0 STARLINK-4761,1 53830U 22114N   23271.50731750  .00002803  00000-0  19411-3 0  9994,2 53830  53.2184 353.5993 0001396  92.8278 267.2874 15.08843186 57457,6917.871,95.437,540.701,538.77,0.0
53830.0,STARLINK-4761,PAYLOAD,2023-09-29 12:01:19,15.08843925,0.0001472,53.2179,349.1405,90.0401,270.076,2.2816e-05,7.5e-07,0.0,0 STARLINK-4761,1 53830U 22114N   23272.50092007  .00000075  00000-0  22816-4 0  9993,2 53830  53.2179 349.1405 0001472  90.0401 270.0760 15.08843925 57607,6917.868,95.437,540.752,538.715,0.0
53830.0,STARLINK-4761,PAYLOAD,2023-09-30 11:52:06,15.0885562,0.000146,53.2176,344.6816,91.4421,268.6739,0.00038954,5.92e-05,0.0,0 STARLINK-4761,1 53830U 22114N   23273.49451401  .00005920  00000-0  38954-3 0  9992,2 53830  53.2176 344.6816 0001460  91.4421 268.6739 15.08855620 57754,6917.833,95.437,540.708,538.688,0.0
53830.0,STARLINK-4761,PAYLOAD,2023-10-01 11:42:52,15.08846578,0.0001629,53.2192,340.223,96.4141,263.7037,3.867e-05,3.28e-06,0.0,0 STARLINK-4761,1 53830U 22114N   23274.48811319  .00000328  00000-0  38670-4 0  9993,2 53830  53.2192 340.2230 0001629  96.4141 263.7037 15.08846578 57901,6917.86,95.437,540.852,538.598,0.0
53830.0,STARLINK-4761,PAYLOAD,2023-10-01 13:18:16,15.08848514,0.0001644,53.2187,339.9247,92.8927,267.2253,7.6504e-05,9.3e-06,0.0,0 STARLINK-4761,1 53830U 22114N   23274.55435212  .00000930  00000-0  76504-4 0  9992,2 53830  53.2187 339.9247 0001644  92.8927 267.2253 15.08848514 58459,6917.854,95.437,540.857,538.582,0.0
53830.0,STARLINK-4761,PAYLOAD,2023-10-01 21:15:12,15.08831544,0.0001828,53.2183,338.4348,84.4026,275.7174,-0.00020499,-3.548e-05,0.0,0 STARLINK-4761,1 53830U 22114N   23274.88556011 -.00003548  00000-0 -20499-3 0  9990,2 53830  53.2183 338.4348 0001828  84.4026 275.7174 15.08831544 58509,6917.906,95.438,541.036,538.507,0.0
53830.0,STARLINK-4761,PAYLOAD,2023-10-02 16:19:50,15.08838627,0.0001647,53.2175,334.8668,84.4568,275.6612,8.9807e-05,1.141e-05,0.0,0 STARLINK-4761,1 53830U 22114N   23275.68044288  .00001141  00000-0  89807-4 0  9991,2 53830  53.2175 334.8668 0001647  84.4568 275.6612 15.08838627 58623,6917.885,95.438,540.889,538.61,0.0
53830.0,STARLINK-4761,PAYLOAD,2023-10-03 03:27:32,15.08835393,0.0001596,53.2175,332.7831,93.3446,266.7729,0.00026379,3.912e-05,0.0,0 STARLINK-4761,1 53830U 22114N   23276.14412737  .00003912  00000-0  26379-3 0  9993,2 53830  53.2175 332.7831 0001596  93.3446 266.7729 15.08835393 58154,6917.894,95.438,540.864,538.655,0.0
53830.0,STARLINK-4761,PAYLOAD,2023-10-03 11:24:28,15.08854343,0.0001726,53.2166,331.2986,83.6871,276.4318,0.00086634,0.00013532,0.0,0 STARLINK-4761,1 53830U 22114N   23276.47532518  .00013532  00000-0  86634-3 0  9998,2 53830  53.2166 331.2986 0001726  83.6871 276.4318 15.08854343 58202,6917.837,95.437,540.896,538.508,0.0
53830.0,STARLINK-4761,PAYLOAD,2023-10-03 16:10:37,15.08866719,0.0001662,53.2159,330.4059,75.5113,284.6063,0.001076,0.00016891,0.0,0 STARLINK-4761,1 53830U 22114N   23276.67404168  .00016891  00000-0  10760-2 0  9996,2 53830  53.2159 330.4059 0001662  75.5113 284.6063 15.08866719 58774,6917.799,95.436,540.813,538.514,0.0
53830.0,STARLINK-4761,PAYLOAD,2023-10-04 09:39:52,15.08842364,0.0001638,53.2156,327.1348,80.7368,279.381,0.0011876,0.00018664,0.0,0 STARLINK-4761,1 53830U 22114N   23277.40268720  .00018664  00000-0  11876-2 0  9999,2 53830  53.2156 327.1348 0001638  80.7368 279.3810 15.08842364 58342,6917.873,95.437,540.871,538.605,0.0
53830.0,STARLINK-4761,PAYLOAD,2023-10-04 20:47:34,15.08824599,0.0001492,53.216,325.0531,84.3903,275.7259,-0.00027006,-4.582e-05,0.0,0 STARLINK-4761,1 53830U 22114N   23277.86637041 -.00004582  00000-0 -27006-3 0  9994,2 53830  53.2160 325.0531 0001492  84.3903 275.7259 15.08824599 58955,6917.927,95.439,540.825,538.76,0.0
53830.0,STARLINK-4761,PAYLOAD,2023-10-05 03:09:07,15.08824784,0.0001801,53.2157,323.8637,81.9726,278.147,0.0003519,5.315e-05,0.0,0 STARLINK-4761,1 53830U 22114N   23278.13133515  .00005315  00000-0  35190-3 0  9998,2 53830  53.2157 323.8637 0001801  81.9726 278.1470 15.08824784 58457,6917.927,95.439,541.038,538.546,0.0
53830.0,STARLINK-4761,PAYLOAD,2023-10-05 09:30:40,15.08827213,0.0001779,53.2158,322.674,90.3961,269.7235,0.0015717,0.00024805,0.0,0 STARLINK-4761,1 53830U 22114N   23278.39629898  .00024805  00000-0  15717-2 0  9997,2 53830  53.2158 322.6740 0001779  90.3961 269.7235 15.08827213 59039,6917.919,95.438,541.015,538.554,0.0
53830.0,STARLINK-4761,PAYLOAD,2023-10-05 20:38:22,15.08841972,0.0001838,53.2166,320.5917,90.6432,269.4771,0.001247,0.00019615,0.0,0 STARLINK-4761,1 53830U 22114N   23278.85998079  .00019615  00000-0  12470-2 0  9994,2 53830  53.2166 320.5917 0001838  90.6432 269.4771 15.08841972 59101,6917.874,95.437,541.011,538.468,0.0
53830.0,STARLINK-4761,PAYLOAD,2023-10-06 09:21:26,15.08867387,0.0001812,53.2167,318.2132,88.7227,271.3972,0.0013831,0.00021809,0.0,0 STARLINK-4761,1 53830U 22114N   23279.38989422  .00021809  00000-0  13831-2 0  9995,2 53830  53.2167 318.2132 0001812  88.7227 271.3972 15.08867387 59188,6917.797,95.436,540.915,538.408,0.0
53830.0,STARLINK-4761,PAYLOAD,2023-10-06 14:07:35,15.08879359,0.0001813,53.2167,317.3212,88.2026,271.9174,0.0015539,0.00024556,0.0,0 STARLINK-4761,1 53830U 22114N   23279.58860940  .00024556  00000-0  15539-2 0  9999,2 53830  53.2167 317.3212 0001813  88.2026 271.9174 15.08879359 58675,6917.76,95.435,540.879,538.371,0.0
53830.0,STARLINK-4761,PAYLOAD,2023-10-07 07:36:50,15.0885276,0.0001747,53.217,314.0501,102.0117,258.1071,0.0011213,0.00017609,0.0,0 STARLINK-4761,1 53830U 22114N   23280.31724908  .00017609  00000-0  11213-2 0  9991,2 53830  53.2170 314.0501 0001747 102.0117 258.1071 15.08852760 58788,6917.841,95.437,540.915,538.498,0.0
53830.0,STARLINK-4761,PAYLOAD,2023-10-07 12:22:59,15.08854176,0.0001782,53.2173,313.1575,98.548,261.5714,0.0011161,0.00017526,0.0,0 STARLINK-4761,1 53830U 22114N   23280.51596794  .00017526  00000-0  11161-2 0  9993,2 53830  53.2173 313.1575 0001782  98.5480 261.5714 15.08854176 59352,6917.837,95.437,540.935,538.469,0.0
53830.0,STARLINK-4761,PAYLOAD,2023-10-07 18:44:32,15.08837008,0.0002854,53.2175,311.9677,81.6683,278.4632,0.00016507,2.339e-05,0.0,0 STARLINK-4761,1 53830U 22114N   23280.78093409  .00002339  00000-0  16507-3 0  9993,2 53830  53.2175 311.9677 0002854  81.6683 278.4632 15.08837008 58857,6917.89,95.438,541.729,537.78,0.0
53830.0,STARLINK-4761,PAYLOAD,2023-10-08 09:03:00,15.08841398,0.0001916,53.2172,309.2949,89.9088,270.2124,0.00099009,0.00015505,0.0,0 STARLINK-4761,1 53830U 22114N   23281.37709412  .00015505  00000-0  99009-3 0  9994,2 53830  53.2172 309.2949 0001916  89.9088 270.2124 15.08841398 59487,6917.876,95.437,541.067,538.416,0.0
53830.0,STARLINK-4761,PAYLOAD,2023-10-08 18:35:19,15.08834244,0.0002175,53.2175,307.5073,92.8449,267.2792,0.00048528,7.442e-05,0.0,0 STARLINK-4761,1 53830U 22114N   23281.77453672  .00007442  00000-0  48528-3 0  9993,2 53830  53.2175 307.5073 0002175  92.8449 267.2792 15.08834244 59547,6917.898,95.438,541.268,538.258,0.0
53830.0,STARLINK-4761,PAYLOAD,2023-10-09 00:56:52,15.08844158,0.0001724,53.2171,306.3187,92.3297,267.7892,0.0005736,8.854e-05,0.0,0 STARLINK-4761,1 53830U 22114N   23282.03949359  .00008854  00000-0  57360-3 0  9997,2 53830  53.2171 306.3187 0001724  92.3297 267.7892 15.08844158 59047,6917.868,95.437,540.925,538.54,0.0
